{
    "links": {
        "self": "http://www.neowsapp.com/rest/v1/neo/3462098?api_key=iIulBulltgU6a56xZRHN4H3l9WmuAYTsLGpBGhQ2"
    },
    "id": "3462098",
    "neo_reference_id": "3462098",
    "name": "(2009 KV21)",
    "designation": "2009 KV21",
    "nasa_jpl_url": "http://ssd.jpl.nasa.gov/sbdb.cgi?sstr=3462098",
    "absolute_magnitude_h": 24.6,
    "estimated_diameter": {
        "kilometers": {
            "estimated_diameter_min": 0.0319561887,
            "estimated_diameter_max": 0.0714562102
        },
        "meters": {
            "estimated_diameter_min": 31.9561886721,
            "estimated_diameter_max": 71.4562101727
        },
        "miles": {
            "estimated_diameter_min": 0.0198566489,
            "estimated_diameter_max": 0.0444008168
        },
        "feet": {
            "estimated_diameter_min": 104.8431420431,
            "estimated_diameter_max": 234.436392583
        }
    },
    "is_potentially_hazardous_asteroid": false,
    "close_approach_data": [
        {
            "close_approach_date": "2009-06-15",
            "close_approach_date_full": "2009-Jun-15 05:29",
            "epoch_date_close_approach": 1245043740000,
            "relative_velocity": {
                "kilometers_per_second": "10.9509856425",
                "kilometers_per_hour": "39423.5483130968",
                "miles_per_hour": "24496.2597837684"
            },
            "miss_distance": {
                "astronomical": "0.036778193",
                "lunar": "14.306717077",
                "kilometers": "5501939.33524891",
                "miles": "3418746.573538558"
            },
            "orbiting_body": "Earth"
        },
        {
            "close_approach_date": "2170-09-13",
            "close_approach_date_full": "2170-Sep-13 23:24",
            "epoch_date_close_approach": 6333549840000,
            "relative_velocity": {
                "kilometers_per_second": "17.8866776773",
                "kilometers_per_hour": "64392.039638329",
                "miles_per_hour": "40010.7092963828"
            },
            "miss_distance": {
                "astronomical": "0.3253507764",
                "lunar": "126.5614520196",
                "kilometers": "48671783.152286268",
                "miles": "30243243.6529877784"
            },
            "orbiting_body": "Earth"
        }
    ],
    "orbital_data": {
        "orbit_id": "9",
        "orbit_determination_date": "2017-04-06 09:00:28",
        "first_observation_date": "2009-05-30",
        "last_observation_date": "2009-06-17",
        "data_arc_in_days": 18,
        "observations_used": 37,
        "orbit_uncertainty": "9",
        "minimum_orbit_intersection": ".0299966",
        "jupiter_tisserand_invariant": "3.248",
        "epoch_osculation": "2454984.5",
        "eccentricity": ".5899375296442216",
        "semi_major_axis": "2.411933170917939",
        "inclination": "7.368062644323476",
        "ascending_node_longitude": "76.82629487559274",
        "orbital_period": "1368.189749567398",
        "perihelion_distance": ".9890432743996558",
        "perihelion_argument": "218.5255666184147",
        "aphelion_distance": "3.834823067436222",
        "perihelion_time": "2455022.425699166628",
        "mean_anomaly": "350.0209370050441",
        "mean_motion": ".2631213982664516",
        "equinox": "J2000",
        "orbit_class": {
            "orbit_class_type": "APO",
            "orbit_class_description": "Near-Earth asteroid orbits which cross the Earth’s orbit similar to that of 1862 Apollo",
            "orbit_class_range": "a (semi-major axis) > 1.0 AU; q (perihelion) < 1.017 AU"
        }
    },
    "is_sentry_object": false
}